{
  "type": "FeatureCollection",
  "features": [
    {
      "type": "Feature",
      "properties": {
        "norad_id": 66604,
        "name": "STARLINK-35977",
        "group": "last-30-days",
        "lat": -38.32342143015961,
        "lon": 7.171132070893667,
        "alt_km": 445.4836103820944,
        "timestamp": "2025-12-23T16:57:11.059695+00:00",
        "meta_object_name": "STARLINK-35977",
        "meta_object_id": "2025-270S",
        "meta_epoch": "2025-12-22T18:06:39.132576",
        "meta_mean_motion": 15.40711845,
        "meta_eccentricity": 0.00026005,
        "meta_inclination": 43.0027,
        "meta_ra_of_asc_node": 134.6473,
        "meta_arg_of_pericenter": 269.9345,
        "meta_mean_anomaly": 90.1213,
        "meta_ephemeris_type": 0,
        "meta_classification_type": "U",
        "meta_norad_cat_id": 66604,
        "meta_element_set_no": 999,
        "meta_rev_at_epoch": 589,
        "meta_bstar": 0.0007530696,
        "meta_mean_motion_dot": 0.00031297,
        "meta_mean_motion_ddot": 0,
        "tle_line1": "1 66604U 25270S   25356.75461959  .00031297  00000+0  75307-3 0  9991",
        "tle_line2": "2 66604  43.0027 134.6473 0002600 269.9345  90.1213 15.40711845  5898"
      },
      "geometry": {
        "type": "Point",
        "coordinates": [
          7.171132070893667,
          -38.32342143015961
        ]
      }
    },
    {
      "type": "Feature",
      "properties": {
        "norad_id": 66605,
        "name": "STARLINK-36052",
        "group": "last-30-days",
        "lat": -26.104880786544964,
        "lon": 97.25896843721281,
        "alt_km": 445.349005330846,
        "timestamp": "2025-12-23T16:57:11.059705+00:00",
        "meta_object_name": "STARLINK-36052",
        "meta_object_id": "2025-270T",
        "meta_epoch": "2025-12-23T00:00:00.999648",
        "meta_mean_motion": 15.40674447,
        "meta_eccentricity": 0.00021618,
        "meta_inclination": 43.0003,
        "meta_ra_of_asc_node": 133.0544,
        "meta_arg_of_pericenter": 274.9545,
        "meta_mean_anomaly": 82.3971,
        "meta_ephemeris_type": 0,
        "meta_classification_type": "U",
        "meta_norad_cat_id": 66605,
        "meta_element_set_no": 999,
        "meta_rev_at_epoch": 604,
        "meta_bstar": 0.00049410775,
        "meta_mean_motion_dot": 0.00020375,
        "meta_mean_motion_ddot": 0,
        "tle_line1": "1 66605U 25270T   25357.00001157  .00020375  00000+0  49411-3 0  9993",
        "tle_line2": "2 66605  43.0003 133.0544 0002161 274.9545  82.3971 15.40674447  6043"
      },
      "geometry": {
        "type": "Point",
        "coordinates": [
          97.25896843721281,
          -26.104880786544964
        ]
      }
    },
    {
      "type": "Feature",
      "properties": {
        "norad_id": 66606,
        "name": "STARLINK-36063",
        "group": "last-30-days",
        "lat": 29.83660479007982,
        "lon": 166.7588427446833,
        "alt_km": 440.06572759118626,
        "timestamp": "2025-12-23T16:57:11.059717+00:00",
        "meta_object_name": "STARLINK-36063",
        "meta_object_id": "2025-270U",
        "meta_epoch": "2025-12-23T08:00:03.000384",
        "meta_mean_motion": 15.40672915,
        "meta_eccentricity": 0.00014183,
        "meta_inclination": 43.0005,
        "meta_ra_of_asc_node": 130.9215,
        "meta_arg_of_pericenter": 255.1128,
        "meta_mean_anomaly": 240.4426,
        "meta_ephemeris_type": 0,
        "meta_classification_type": "U",
        "meta_norad_cat_id": 66606,
        "meta_element_set_no": 999,
        "meta_rev_at_epoch": 610,
        "meta_bstar": 0.0014796794,
        "meta_mean_motion_dot": 0.00061954,
        "meta_mean_motion_ddot": 0,
        "tle_line1": "1 66606U 25270U   25357.33336806  .00061954  00000+0  14797-2 0  9998",
        "tle_line2": "2 66606  43.0005 130.9215 0001418 255.1128 240.4426 15.40672915  6106"
      },
      "geometry": {
        "type": "Point",
        "coordinates": [
          166.7588427446833,
          29.83660479007982
        ]
      }
    },
    {
      "type": "Feature",
      "properties": {
        "norad_id": 66607,
        "name": "STARLINK-35993",
        "group": "last-30-days",
        "lat": -18.516877359122898,
        "lon": 107.88910126724429,
        "alt_km": 445.21321555242776,
        "timestamp": "2025-12-23T16:57:11.059728+00:00",
        "meta_object_name": "STARLINK-35993",
        "meta_object_id": "2025-270V",
        "meta_epoch": "2025-12-23T00:00:00.999648",
        "meta_mean_motion": 15.40678523,
        "meta_eccentricity": 0.00018994,
        "meta_inclination": 43.0003,
        "meta_ra_of_asc_node": 133.0246,
        "meta_arg_of_pericenter": 266.823,
        "meta_mean_anomaly": 102.9584,
        "meta_ephemeris_type": 0,
        "meta_classification_type": "U",
        "meta_norad_cat_id": 66607,
        "meta_element_set_no": 999,
        "meta_rev_at_epoch": 595,
        "meta_bstar": 0.00049027291,
        "meta_mean_motion_dot": 0.00020216,
        "meta_mean_motion_ddot": 0,
        "tle_line1": "1 66607U 25270V   25357.00001157  .00020216  00000+0  49027-3 0  9992",
        "tle_line2": "2 66607  43.0003 133.0246 0001899 266.8230 102.9584 15.40678523  5959"
      },
      "geometry": {
        "type": "Point",
        "coordinates": [
          107.88910126724429,
          -18.516877359122898
        ]
      }
    },
    {
      "type": "Feature",
      "properties": {
        "norad_id": 66608,
        "name": "STARLINK-36036",
        "group": "last-30-days",
        "lat": 35.894578444039944,
        "lon": 179.6959803597501,
        "alt_km": 439.4232665156587,
        "timestamp": "2025-12-23T16:57:11.059738+00:00",
        "meta_object_name": "STARLINK-36036",
        "meta_object_id": "2025-270W",
        "meta_epoch": "2025-12-23T08:00:03.000384",
        "meta_mean_motion": 15.4067526,
        "meta_eccentricity": 0.00017973,
        "meta_inclination": 43.0007,
        "meta_ra_of_asc_node": 130.8918,
        "meta_arg_of_pericenter": 244.908,
        "meta_mean_anomaly": 263.0729,
        "meta_ephemeris_type": 0,
        "meta_classification_type": "U",
        "meta_norad_cat_id": 66608,
        "meta_element_set_no": 999,
        "meta_rev_at_epoch": 594,
        "meta_bstar": 0.0019150563,
        "meta_mean_motion_dot": 0.00080476,
        "meta_mean_motion_ddot": 0,
        "tle_line1": "1 66608U 25270W   25357.33336806  .00080476  00000+0  19151-2 0  9999",
        "tle_line2": "2 66608  43.0007 130.8918 0001797 244.9080 263.0729 15.40675260  5946"
      },
      "geometry": {
        "type": "Point",
        "coordinates": [
          179.6959803597501,
          35.894578444039944
        ]
      }
    },
    {
      "type": "Feature",
      "properties": {
        "norad_id": 66609,
        "name": "STARLINK-36034",
        "group": "last-30-days",
        "lat": 42.71255167732545,
        "lon": -149.14984193067113,
        "alt_km": 438.35041287897275,
        "timestamp": "2025-12-23T16:57:11.059749+00:00",
        "meta_object_name": "STARLINK-36034",
        "meta_object_id": "2025-270X",
        "meta_epoch": "2025-12-23T08:00:03.000384",
        "meta_mean_motion": 15.40653045,
        "meta_eccentricity": 0.00017056,
        "meta_inclination": 43.0005,
        "meta_ra_of_asc_node": 130.8314,
        "meta_arg_of_pericenter": 275.5368,
        "meta_mean_anomaly": 257.3799,
        "meta_ephemeris_type": 0,
        "meta_classification_type": "U",
        "meta_norad_cat_id": 66609,
        "meta_element_set_no": 999,
        "meta_rev_at_epoch": 594,
        "meta_bstar": 0.0018317451,
        "meta_mean_motion_dot": 0.00076868,
        "meta_mean_motion_ddot": 0,
        "tle_line1": "1 66609U 25270X   25357.33336806  .00076868  00000+0  18317-2 0  9993",
        "tle_line2": "2 66609  43.0005 130.8314 0001705 275.5368 257.3799 15.40653045  5943"
      },
      "geometry": {
        "type": "Point",
        "coordinates": [
          -149.14984193067113,
          42.71255167732545
        ]
      }
    },
    {
      "type": "Feature",
      "properties": {
        "norad_id": 66610,
        "name": "STARLINK-35680",
        "group": "last-30-days",
        "lat": -1.9735301165677461,
        "lon": 126.77277333412971,
        "alt_km": 443.8055860292743,
        "timestamp": "2025-12-23T16:57:11.059759+00:00",
        "meta_object_name": "STARLINK-35680",
        "meta_object_id": "2025-270Y",
        "meta_epoch": "2025-12-23T08:00:03.000384",
        "meta_mean_motion": 15.40662626,
        "meta_eccentricity": 0.00019509,
        "meta_inclination": 43.0002,
        "meta_ra_of_asc_node": 131.0419,
        "meta_arg_of_pericenter": 274.7587,
        "meta_mean_anomaly": 171.0625,
        "meta_ephemeris_type": 0,
        "meta_classification_type": "U",
        "meta_norad_cat_id": 66610,
        "meta_element_set_no": 999,
        "meta_rev_at_epoch": 605,
        "meta_bstar": 0.0015243488,
        "meta_mean_motion_dot": 0.00063828,
        "meta_mean_motion_ddot": 0,
        "tle_line1": "1 66610U 25270Y   25357.33336806  .00063828  00000+0  15243-2 0  9992",
        "tle_line2": "2 66610  43.0002 131.0419 0001950 274.7587 171.0625 15.40662626  6055"
      },
      "geometry": {
        "type": "Point",
        "coordinates": [
          126.77277333412971,
          -1.9735301165677461
        ]
      }
    }
  ]
}